{
  "type": "FeatureCollection",
  "features": [
    {
      "type": "Feature",
      "properties": {
        "norad_id": 44334,
        "name": "EUTELSAT 7C",
        "group": "eutelsat",
        "lat": -0.01766161091865726,
        "lon": 156.13790427965733,
        "alt_km": 35787.79296696327,
        "timestamp": "2025-12-21T03:56:50.525735+00:00",
        "meta_object_name": "EUTELSAT 7C",
        "meta_object_id": "2019-034B",
        "meta_epoch": "2025-12-20T06:24:55.272960",
        "meta_mean_motion": 1.00270763,
        "meta_eccentricity": 0.00030526,
        "meta_inclination": 0.0729,
        "meta_ra_of_asc_node": 179.1336,
        "meta_arg_of_pericenter": 73.4447,
        "meta_mean_anomaly": 299.7414,
        "meta_ephemeris_type": 0,
        "meta_classification_type": "U",
        "meta_norad_cat_id": 44334,
        "meta_element_set_no": 999,
        "meta_rev_at_epoch": 504,
        "meta_bstar": 0,
        "meta_mean_motion_dot": 7.2e-07,
        "meta_mean_motion_ddot": 0,
        "tle_line1": "1 44334U 19034B   25354.26730640  .00000072  00000+0  00000+0 0  9999",
        "tle_line2": "2 44334   0.0729 179.1336 0003052  73.4447 299.7414  1.00270763  5048"
      },
      "geometry": {
        "type": "Point",
        "coordinates": [
          156.13790427965733,
          -0.01766161091865726
        ]
      }
    },
    {
      "type": "Feature",
      "properties": {
        "norad_id": 44624,
        "name": "EUTELSAT 5 WEST B",
        "group": "eutelsat",
        "lat": 0.026385555553975704,
        "lon": 144.16623258391726,
        "alt_km": 35793.60590845867,
        "timestamp": "2025-12-21T03:56:50.525746+00:00",
        "meta_object_name": "EUTELSAT 5 WEST B",
        "meta_object_id": "2019-067A",
        "meta_epoch": "2025-12-20T18:20:30.152832",
        "meta_mean_motion": 1.00271328,
        "meta_eccentricity": 0.0002996,
        "meta_inclination": 0.067,
        "meta_ra_of_asc_node": 335.5656,
        "meta_arg_of_pericenter": 294.2858,
        "meta_mean_anomaly": 89.8731,
        "meta_ephemeris_type": 0,
        "meta_classification_type": "U",
        "meta_norad_cat_id": 44624,
        "meta_element_set_no": 999,
        "meta_rev_at_epoch": 2264,
        "meta_bstar": 0,
        "meta_mean_motion_dot": -1.9e-07,
        "meta_mean_motion_ddot": 0,
        "tle_line1": "1 44624U 19067A   25354.76423788 -.00000019  00000+0  00000+0 0  9996",
        "tle_line2": "2 44624   0.0670 335.5656 0002996 294.2858  89.8731  1.00271328 22646"
      },
      "geometry": {
        "type": "Point",
        "coordinates": [
          144.16623258391726,
          0.026385555553975704
        ]
      }
    },
    {
      "type": "Feature",
      "properties": {
        "norad_id": 45027,
        "name": "EUTELSAT KONNECT",
        "group": "eutelsat",
        "lat": 0.07092225884063344,
        "lon": 156.37477026280354,
        "alt_km": 35790.16207048532,
        "timestamp": "2025-12-21T03:56:50.525757+00:00",
        "meta_object_name": "EUTELSAT KONNECT",
        "meta_object_id": "2020-005B",
        "meta_epoch": "2025-12-20T06:25:02.761248",
        "meta_mean_motion": 1.00269751,
        "meta_eccentricity": 0.00013058,
        "meta_inclination": 0.0718,
        "meta_ra_of_asc_node": 94.8547,
        "meta_arg_of_pericenter": 192.1408,
        "meta_mean_anomaly": 265.5721,
        "meta_ephemeris_type": 0,
        "meta_classification_type": "U",
        "meta_norad_cat_id": 45027,
        "meta_element_set_no": 999,
        "meta_rev_at_epoch": 2254,
        "meta_bstar": 0,
        "meta_mean_motion_dot": 7.3e-07,
        "meta_mean_motion_ddot": 0,
        "tle_line1": "1 45027U 20005B   25354.26739307  .00000073  00000+0  00000+0 0  9999",
        "tle_line2": "2 45027   0.0718  94.8547 0001305 192.1408 265.5721  1.00269751 22549"
      },
      "geometry": {
        "type": "Point",
        "coordinates": [
          156.37477026280354,
          0.07092225884063344
        ]
      }
    },
    {
      "type": "Feature",
      "properties": {
        "norad_id": 49056,
        "name": "EUTELSAT QUANTUM",
        "group": "eutelsat",
        "lat": 0.0036606699724893283,
        "lon": -163.14216613280794,
        "alt_km": 35784.108970970345,
        "timestamp": "2025-12-21T03:56:50.525768+00:00",
        "meta_object_name": "EUTELSAT QUANTUM",
        "meta_object_id": "2021-069B",
        "meta_epoch": "2025-12-20T17:47:21.490944",
        "meta_mean_motion": 1.00272163,
        "meta_eccentricity": 0.0003338,
        "meta_inclination": 0.02,
        "meta_ra_of_asc_node": 36.0608,
        "meta_arg_of_pericenter": 243.5256,
        "meta_mean_anomaly": 124.5294,
        "meta_ephemeris_type": 0,
        "meta_classification_type": "U",
        "meta_norad_cat_id": 49056,
        "meta_element_set_no": 999,
        "meta_rev_at_epoch": 1613,
        "meta_bstar": 0,
        "meta_mean_motion_dot": 1.49e-06,
        "meta_mean_motion_ddot": 0,
        "tle_line1": "1 49056U 21069B   25354.74122096  .00000149  00000+0  00000+0 0  9994",
        "tle_line2": "2 49056   0.0200  36.0608 0003338 243.5256 124.5294  1.00272163 16135"
      },
      "geometry": {
        "type": "Point",
        "coordinates": [
          -163.14216613280794,
          0.0036606699724893283
        ]
      }
    },
    {
      "type": "Feature",
      "properties": {
        "norad_id": 53765,
        "name": "EUTELSAT KONNECT VHTS",
        "group": "eutelsat",
        "lat": 0.06088706383042334,
        "lon": 151.9397966126771,
        "alt_km": 35783.76838282603,
        "timestamp": "2025-12-21T03:56:50.525778+00:00",
        "meta_object_name": "EUTELSAT KONNECT VHTS",
        "meta_object_id": "2022-110A",
        "meta_epoch": "2025-12-20T03:48:38.814048",
        "meta_mean_motion": 1.00276689,
        "meta_eccentricity": 0.00023926,
        "meta_inclination": 0.0642,
        "meta_ra_of_asc_node": 98.8087,
        "meta_arg_of_pericenter": 137.8855,
        "meta_mean_anomaly": 272.2232,
        "meta_ephemeris_type": 0,
        "meta_classification_type": "U",
        "meta_norad_cat_id": 53765,
        "meta_element_set_no": 999,
        "meta_rev_at_epoch": 503,
        "meta_bstar": 0,
        "meta_mean_motion_dot": 4.2e-07,
        "meta_mean_motion_ddot": 0,
        "tle_line1": "1 53765U 22110A   25354.15878257  .00000042  00000+0  00000+0 0  9998",
        "tle_line2": "2 53765   0.0642  98.8087 0002392 137.8855 272.2232  1.00276689  5030"
      },
      "geometry": {
        "type": "Point",
        "coordinates": [
          151.9397966126771,
          0.06088706383042334
        ]
      }
    },
    {
      "type": "Feature",
      "properties": {
        "norad_id": 54048,
        "name": "EUTELSAT HOTBIRD 13F",
        "group": "eutelsat",
        "lat": -0.026846426240581776,
        "lon": 162.19594309199456,
        "alt_km": 35795.12234251271,
        "timestamp": "2025-12-21T03:56:50.525789+00:00",
        "meta_object_name": "EUTELSAT HOTBIRD 13F",
        "meta_object_id": "2022-134A",
        "meta_epoch": "2025-12-20T04:43:57.443232",
        "meta_mean_motion": 1.00272198,
        "meta_eccentricity": 0.0002383,
        "meta_inclination": 0.0482,
        "meta_ra_of_asc_node": 295.6006,
        "meta_arg_of_pericenter": 68.8406,
        "meta_mean_anomaly": 168.5765,
        "meta_ephemeris_type": 0,
        "meta_classification_type": "U",
        "meta_norad_cat_id": 54048,
        "meta_element_set_no": 999,
        "meta_rev_at_epoch": 1158,
        "meta_bstar": 0,
        "meta_mean_motion_dot": 1.11e-06,
        "meta_mean_motion_ddot": 0,
        "tle_line1": "1 54048U 22134A   25354.19719263  .00000111  00000+0  00000+0 0  9991",
        "tle_line2": "2 54048   0.0482 295.6006 0002383  68.8406 168.5765  1.00272198 11586"
      },
      "geometry": {
        "type": "Point",
        "coordinates": [
          162.19594309199456,
          -0.026846426240581776
        ]
      }
    },
    {
      "type": "Feature",
      "properties": {
        "norad_id": 54225,
        "name": "EUTELSAT HOTBIRD 13G",
        "group": "eutelsat",
        "lat": -0.024970182642625502,
        "lon": 162.18065216453152,
        "alt_km": 35778.4321985595,
        "timestamp": "2025-12-21T03:56:50.525800+00:00",
        "meta_object_name": "EUTELSAT HOTBIRD 13G",
        "meta_object_id": "2022-146A",
        "meta_epoch": "2025-12-19T18:27:37.056960",
        "meta_mean_motion": 1.0027241,
        "meta_eccentricity": 0.00017892,
        "meta_inclination": 0.0515,
        "meta_ra_of_asc_node": 225.8744,
        "meta_arg_of_pericenter": 308.1908,
        "meta_mean_anomaly": 204.4423,
        "meta_ephemeris_type": 0,
        "meta_classification_type": "U",
        "meta_norad_cat_id": 54225,
        "meta_element_set_no": 999,
        "meta_rev_at_epoch": 566,
        "meta_bstar": 0,
        "meta_mean_motion_dot": 1.12e-06,
        "meta_mean_motion_ddot": 0,
        "tle_line1": "1 54225U 22146A   25353.76917890  .00000112  00000+0  00000+0 0  9990",
        "tle_line2": "2 54225   0.0515 225.8744 0001789 308.1908 204.4423  1.00272410  5660"
      },
      "geometry": {
        "type": "Point",
        "coordinates": [
          162.18065216453152,
          -0.024970182642625502
        ]
      }
    }
  ]
}